[{"OBJECT_NAME":"STARLINK-31106","OBJECT_ID":"2023-211Y","EPOCH":"2026-03-09T02:16:57.114336","MEAN_MOTION":15.27576272,"ECCENTRICITY":6.219e-5,"INCLINATION":43.0024,"RA_OF_ASC_NODE":88.6354,"ARG_OF_PERICENTER":276.696,"MEAN_ANOMALY":83.382,"EPHEMERIS_TYPE":0,"CLASSIFICATION_TYPE":"U","NORAD_CAT_ID":58689,"ELEMENT_SET_NO":999,"REV_AT_EPOCH":12237,"BSTAR":4.3779382e-5,"MEAN_MOTION_DOT":9.43e-6,"MEAN_MOTION_DDOT":0},{"OBJECT_NAME":"OBJECT D","OBJECT_ID":"2021-102D","EPOCH":"2026-03-09T14:47:14.426880","MEAN_MOTION":15.2846442,"ECCENTRICITY":0.0009157,"INCLINATION":97.3342,"RA_OF_ASC_NODE":112.2633,"ARG_OF_PERICENTER":187.6206,"MEAN_ANOMALY":172.4897,"EPHEMERIS_TYPE":0,"CLASSIFICATION_TYPE":"U","NORAD_CAT_ID":49398,"ELEMENT_SET_NO":999,"REV_AT_EPOCH":23880,"BSTAR":0.00046011,"MEAN_MOTION_DOT":0.00012697,"MEAN_MOTION_DDOT":0}]
